OBJECT_NAME,OBJECT_ID,EPOCH,MEAN_MOTION,ECCENTRICITY,INCLINATION,RA_OF_ASC_NODE,ARG_OF_PERICENTER,MEAN_ANOMALY,EPHEMERIS_TYPE,CLASSIFICATION_TYPE,NORAD_CAT_ID,ELEMENT_SET_NO,REV_AT_EPOCH,BSTAR,MEAN_MOTION_DOT,MEAN_MOTION_DDOT
2026-134H,2026-134H,2026-07-06T16:09:42.964416,15.09874029,.0015272,97.7022,257.8744,208.1278,151.9127,0,U,69545,999,323,.32187E-3,.5159E-4,0
STARLINK-37880,2026-135A,2026-07-07T02:00:03.000384,15.72712682,.0001442,97.2841,216.2203,87.1977,195.9960,0,U,69546,999,450,-.19966E-1,-.2317095E-1,0
STARLINK-37881,2026-135B,2026-07-07T00:41:38.200704,15.80834634,.0001011,97.2843,216.1743,101.5615,258.5766,0,U,69547,999,339,.9151E-3,.178936E-2,0
STARLINK-37265,2026-135C,2026-07-07T00:40:39.587808,15.80917150,.0001605,97.2837,216.1747,108.8114,251.3329,0,U,69548,999,339,.11761E-2,.232313E-2,0
STARLINK-37871,2026-135D,2026-07-07T00:39:19.257408,15.80865436,.0001102,97.2844,216.1764,119.9823,240.1554,0,U,69549,999,339,.58733E-3,.114098E-2,0
STARLINK-37865,2026-135E,2026-07-07T03:39:33.199776,15.80817930,.0000872,97.2840,216.3122,85.4621,274.6747,0,U,69550,999,341,.1254E-2,.247018E-2,0
STARLINK-37862,2026-135F,2026-07-07T00:33:12.511008,15.80944357,.0001112,97.2844,216.1821,139.1577,220.9775,0,U,69551,999,339,.1733E-2,.347416E-2,0
STARLINK-37861,2026-135G,2026-07-07T00:30:27.052416,15.80950751,.0000905,97.2846,216.1852,115.7882,244.3479,0,U,69552,999,339,.12573E-2,.249231E-2,0
STARLINK-37859,2026-135H,2026-07-07T00:29:07.090080,15.80920050,.0000459,97.2853,216.1863,110.5539,249.5778,0,U,69553,999,339,.14782E-2,.294175E-2,0
STARLINK-37860,2026-135J,2026-07-07T00:28:43.355136,15.80952746,.0000853,97.2848,216.1878,124.6346,235.5003,0,U,69554,999,339,.1299E-2,.257787E-2,0
STARLINK-37858,2026-135K,2026-07-07T00:26:05.741664,15.80888349,.0001042,97.2847,216.1898,132.1114,228.0243,0,U,69555,999,339,.51717E-3,.100397E-2,0
STARLINK-37927,2026-135L,2026-07-07T00:25:45.770304,15.80866086,.0001085,97.2851,216.1903,58.4844,301.6530,0,U,69556,999,339,.78082E-3,.152409E-2,0
STARLINK-37929,2026-135M,2026-07-07T02:00:03.000384,15.77749123,.000134,97.2846,216.2604,62.5694,311.4545,0,U,69557,999,450,-.16934E-1,-.2431878E-1,0
STARLINK-37954,2026-135N,2026-07-07T02:00:03.000384,15.77533836,.0001587,97.2846,216.2630,71.0854,309.3872,0,U,69558,999,450,-.16844E-1,-.2401286E-1,0
STARLINK-37958,2026-135P,2026-07-07T00:19:15.192192,15.80892878,.0001099,97.2852,216.1965,96.8142,263.3251,0,U,69559,999,339,.98663E-3,.19378E-2,0
STARLINK-37950,2026-135Q,2026-07-07T02:00:03.000384,15.80735783,.0000958,97.2848,216.2718,56.7451,342.3225,0,U,69560,999,450,.64577E-3,.12488E-2,0
STARLINK-37952,2026-135R,2026-07-07T00:17:01.749120,15.80957354,.0001008,97.2845,216.1981,94.2002,265.9382,0,U,69561,999,339,.17389E-2,.348854E-2,0
STARLINK-37935,2026-135S,2026-07-07T02:00:03.000384,15.76750603,.0001597,97.2848,216.2735,67.1191,338.5875,0,U,69562,999,450,-.17517E-1,-.2409746E-1,0
STARLINK-37936,2026-135T,2026-07-07T02:00:03.000384,15.78344895,.000169,97.2847,216.2920,74.7240,14.4241,0,U,69563,999,451,-.16156E-1,-.2390819E-1,0
STARLINK-37932,2026-135U,2026-07-07T01:36:26.309952,15.80852963,.0002124,97.2838,216.2756,144.5468,215.5941,0,U,69564,999,340,.11328E-2,.222849E-2,0
STARLINK-37916,2026-135V,2026-07-07T03:06:49.045248,15.80862677,.000126,97.2853,216.3438,100.3828,259.7582,0,U,69565,999,341,.97747E-3,.191668E-2,0
STARLINK-37909,2026-135W,2026-07-07T01:26:34.519200,15.80917415,.0001482,97.2835,216.2870,140.4426,219.6950,0,U,69566,999,340,.13465E-2,.267059E-2,0
STARLINK-37934,2026-135X,2026-07-07T00:00:00.997920,15.80984292,.0001839,97.2842,216.2151,93.0705,267.0774,0,U,69567,999,339,.13848E-2,.275775E-2,0
STARLINK-37938,2026-135Y,2026-07-07T02:00:03.000384,15.77457995,.0001737,97.2845,216.3084,75.8432,48.4255,0,U,69568,999,451,-.1778E-1,-.2507381E-1,0
STARLINK-37924,2026-135Z,2026-07-07T04:25:58.606176,15.80916033,.0000963,97.2844,216.4219,101.0301,259.1075,0,U,69569,999,342,.63161E-3,.123122E-2,0
SHIJIAN-31 (SJ-31),2026-136A,2026-07-06T17:49:48.830592,1.92222044,.6940542,63.4839,354.0648,171.8102,212.3631,0,U,69570,999,46,0,.243E-5,0
CZ-3B R/B,2026-136B,2026-07-05T13:43:59.929824,2.32696843,.72987248,63.4394,352.4023,171.4752,216.8535,0,U,69571,999,45,.59902537E-3,.414994E-2,.55813863E-4
GUOWANG OBJECT A,2026-137A,2026-07-06T23:54:37.376352,13.89812267,.0012575,49.9995,176.5329,291.1328,68.8226,0,U,69572,999,277,-.72722E-4,-.236E-5,0
GUOWANG OBJECT B,2026-137B,2026-07-06T23:50:26.629728,13.89804066,.0011866,50.0021,176.5165,290.1477,69.8144,0,U,69573,999,278,-.6739E-4,-.229E-5,0
GUOWANG OBJECT C,2026-137C,2026-07-06T23:48:53.520768,13.89814771,.0011924,49.9957,176.4978,291.8897,68.0733,0,U,69574,999,278,.16088E-5,-.144E-5,0
