2026-134H               
1 69545U 26134H   26187.67341394  .00005159  00000+0  32187-3 0  9999
2 69545  97.7022 257.8744 0015272 208.1278 151.9127 15.09874029  3239
STARLINK-37880          
1 69546U 26135A   26188.08336806 -.02317095  00000+0 -19966-1 0  9996
2 69546  97.2841 216.2203 0001442  87.1977 195.9960 15.72712682  4508
STARLINK-37881          
1 69547U 26135B   26188.02891436  .00178936  00000+0  91510-3 0  9998
2 69547  97.2843 216.1743 0001011 101.5615 258.5766 15.80834634  3398
STARLINK-37265          
1 69548U 26135C   26188.02823597  .00232313  00000+0  11761-2 0  9991
2 69548  97.2837 216.1747 0001605 108.8114 251.3329 15.80917150  3390
STARLINK-37871          
1 69549U 26135D   26188.02730622  .00114098  00000+0  58733-3 0  9998
2 69549  97.2844 216.1764 0001102 119.9823 240.1554 15.80865436  3395
STARLINK-37865          
1 69550U 26135E   26188.15246759  .00247018  00000+0  12540-2 0  9991
2 69550  97.2840 216.3122 0000872  85.4621 274.6747 15.80817930  3414
STARLINK-37862          
1 69551U 26135F   26188.02306147  .00347416  00000+0  17330-2 0  9991
2 69551  97.2844 216.1821 0001112 139.1577 220.9775 15.80944357  3394
STARLINK-37861          
1 69552U 26135G   26188.02114644  .00249231  00000+0  12573-2 0  9991
2 69552  97.2846 216.1852 0000905 115.7882 244.3479 15.80950751  3395
STARLINK-37859          
1 69553U 26135H   26188.02022095  .00294175  00000+0  14782-2 0  9991
2 69553  97.2853 216.1863 0000459 110.5539 249.5778 15.80920050  3390
STARLINK-37860          
1 69554U 26135J   26188.01994624  .00257787  00000+0  12990-2 0  9994
2 69554  97.2848 216.1878 0000853 124.6346 235.5003 15.80952746  3394
STARLINK-37858          
1 69555U 26135K   26188.01812201  .00100397  00000+0  51717-3 0  9990
2 69555  97.2847 216.1898 0001042 132.1114 228.0243 15.80888349  3394
STARLINK-37927          
1 69556U 26135L   26188.01789086  .00152409  00000+0  78082-3 0  9990
2 69556  97.2851 216.1903 0001085  58.4844 301.6530 15.80866086  3395
STARLINK-37929          
1 69557U 26135M   26188.08336806 -.02431878  00000+0 -16934-1 0  9996
2 69557  97.2846 216.2604 0001340  62.5694 311.4545 15.77749123  4509
STARLINK-37954          
1 69558U 26135N   26188.08336806 -.02401286  00000+0 -16844-1 0  9997
2 69558  97.2846 216.2630 0001587  71.0854 309.3872 15.77533836  4506
STARLINK-37958          
1 69559U 26135P   26188.01337028  .00193780  00000+0  98663-3 0  9992
2 69559  97.2852 216.1965 0001099  96.8142 263.3251 15.80892878  3391
STARLINK-37950          
1 69560U 26135Q   26188.08336806  .00124880  00000+0  64577-3 0  9996
2 69560  97.2848 216.2718 0000958  56.7451 342.3225 15.80735783  4500
STARLINK-37952          
1 69561U 26135R   26188.01182580  .00348854  00000+0  17389-2 0  9995
2 69561  97.2845 216.1981 0001008  94.2002 265.9382 15.80957354  3395
STARLINK-37935          
1 69562U 26135S   26188.08336806 -.02409746  00000+0 -17517-1 0  9999
2 69562  97.2848 216.2735 0001597  67.1191 338.5875 15.76750603  4509
STARLINK-37936          
1 69563U 26135T   26188.08336806 -.02390819  00000+0 -16156-1 0  9998
2 69563  97.2847 216.2920 0001690  74.7240  14.4241 15.78344895  4510
STARLINK-37932          
1 69564U 26135U   26188.06697118  .00222849  00000+0  11328-2 0  9993
2 69564  97.2838 216.2756 0002124 144.5468 215.5941 15.80852963  3400
STARLINK-37916          
1 69565U 26135V   26188.12973432  .00191668  00000+0  97747-3 0  9991
2 69565  97.2853 216.3438 0001260 100.3828 259.7582 15.80862677  3411
STARLINK-37909          
1 69566U 26135W   26188.06012175  .00267059  00000+0  13465-2 0  9995
2 69566  97.2835 216.2870 0001482 140.4426 219.6950 15.80917415  3400
STARLINK-37934          
1 69567U 26135X   26188.00001155  .00275775  00000+0  13848-2 0  9995
2 69567  97.2842 216.2151 0001839  93.0705 267.0774 15.80984292  3396
STARLINK-37938          
1 69568U 26135Y   26188.08336806 -.02507381  00000+0 -17780-1 0  9991
2 69568  97.2845 216.3084 0001737  75.8432  48.4255 15.77457995  4519
STARLINK-37924          
1 69569U 26135Z   26188.18470609  .00123122  00000+0  63161-3 0  9992
2 69569  97.2844 216.4219 0000963 101.0301 259.1075 15.80916033  3424
SHIJIAN-31 (SJ-31)      
1 69570U 26136A   26187.74292628  .00000243  00000+0  00000+0 0  9996
2 69570  63.4839 354.0648 6940542 171.8102 212.3631  1.92222044   466
CZ-3B R/B               
1 69571U 26136B   26186.57222141  .00414994  55814-4  59903-3 0  9990
2 69571  63.4394 352.4023 7298724 171.4752 216.8535  2.32696843   456
GUOWANG OBJECT A        
1 69572U 26137A   26187.99626593 -.00000236  00000+0 -72722-4 0  9997
2 69572  49.9995 176.5329 0012575 291.1328  68.8226 13.89812267  2770
GUOWANG OBJECT B        
1 69573U 26137B   26187.99336377 -.00000229  00000+0 -67390-4 0  9993
2 69573  50.0021 176.5165 0011866 290.1477  69.8144 13.89804066  2787
GUOWANG OBJECT C        
1 69574U 26137C   26187.99228612 -.00000144  00000+0  16088-5 0  9990
2 69574  49.9957 176.4978 0011924 291.8897  68.0733 13.89814771  2782
